ONEWEB-0387             
1 49313U 21090AL  23058.25025851  .00000055  00000+0  10236-3 0  9992
2 49313  87.9356 154.4753 0001723 107.3294 252.8028 13.20775621 70635
ONEWEB-0388             
1 49314U 21090AM  23058.31325273  .00000125  00000+0  27952-3 0  9992
2 49314  87.9335 184.7211 0001579 101.7741 258.3569 13.19725780 67368
ONEWEB-0389             
1 50469U 21132A   23058.25451737  .00000042  00000+0  74139-4 0  9998
2 50469  87.9073 245.3988 0002324  97.1548 262.9848 13.17542186 59274
ONEWEB-0390             
1 50470U 21132B   23058.48418957  .00000028  00000+0  39431-4 0  9992
2 50470  87.9074 245.3560 0002143 103.0108 257.1262 13.17512328 59306
ONEWEB-0391             
1 50471U 21132C   23058.78983145  .00000088  00000+0  19392-3 0  9991
2 50471  87.9075 245.2664 0001941  94.5147 265.6206 13.17481337 60639
ONEWEB-0392             
1 50472U 21132D   23058.21937232  .00000084  00000+0  18208-3 0  9997
2 50472  87.9076 245.4146 0001798  96.0461 264.0876 13.18128135 59307
ONEWEB-0393             
1 50473U 21132E   23058.22767662  .00000071  00000+0  14778-3 0  9991
2 50473  87.9070 245.3944 0001725 105.4764 254.6558 13.17988360 59291
ONEWEB-0394             
1 50474U 21132F   23058.34434806  .00000170  00000+0  39969-3 0  9995
2 50474  87.9154 215.0522 0001665  97.6600 262.4722 13.18689707 62675
ONEWEB-0395             
1 50475U 21132G   23058.06699809 -.00000563  00000+0 -16249-2 0  9994
2 50475  87.8808 260.7168 0001758  97.6965 262.4363 13.11420793 57633
ONEWEB-0396             
1 50476U 21132H   23058.41390028 -.00000004  00000+0 -43675-4 0  9990
2 50476  87.9092 215.0287 0001818  92.3776 267.7564 13.18683137 62721
ONEWEB-0397             
1 50477U 21132J   23058.35277477  .00000074  00000+0  15397-3 0  9990
2 50477  87.9148 215.0654 0001794  91.8784 268.2554 13.18687060 62698
ONEWEB-0398             
1 50478U 21132K   23058.49223812 -.00000157  00000+0 -47874-3 0  9999
2 50478  87.8805 260.6222 0001896 109.1634 250.9699 13.11415826 57587
ONEWEB-0399             
1 50479U 21132L   23058.24990646  .00000415  00000+0  11338-2 0  9999
2 50479  87.8803 260.6831 0001514  73.4376 286.6918 13.11416767 57546
ONEWEB-0400             
1 50480U 21132M   23058.40757809  .00000071  00000+0  14701-3 0  9997
2 50480  87.9224 215.0334 0001598 108.9776 251.1529 13.18687882 62690
ONEWEB-0401             
1 50481U 21132N   23058.37386356  .00000112  00000+0  25245-3 0  9990
2 50481  87.9111 215.0395 0001538  99.1672 260.9634 13.18685592 62694
ONEWEB-0402             
1 50482U 21132P   23058.41600423 -.00000010  00000+0 -56994-4 0  9995
2 50482  87.9222 215.0330 0001045  77.6348 282.4900 13.18686397 62724
ONEWEB-0403             
1 50483U 21132Q   23058.43919370  .00000073  00000+0  15190-3 0  9991
2 50483  87.9192 215.0414 0001764  90.4643 269.6692 13.18686937 62683
ONEWEB-0404             
1 50484U 21132R   23058.53707736  .00000442  00000+0  12118-2 0  9990
2 50484  87.8807 260.5862 0002345  82.2875 277.8519 13.11417118 58949
ONEWEB-0405             
1 50485U 21132S   23058.39605952  .00000057  00000+0  90271-4 0  9992
2 50485  87.9583 215.0067 0001595 137.4264 222.7000 13.32609144 63063
ONEWEB-0406             
1 50486U 21132T   23058.36755319  .00000077  00000+0  16262-3 0  9992
2 50486  87.9154 215.0489 0002134  95.8017 264.3358 13.18687967 62700
ONEWEB-0407             
1 50487U 21132U   23058.36123006  .00000261  00000+0  62938-3 0  9991
2 50487  87.9123 215.1003 0001637  92.0404 268.0915 13.18686649 62645
ONEWEB-0409             
1 50488U 21132V   23058.07710238  .00000431  00000+0  11799-2 0  9996
2 50488  87.8815 260.6785 0002166  93.5286 266.6089 13.11418971 57506
ONEWEB-0412             
1 50489U 21132W   23058.42655173  .00000268  00000+0  64666-3 0  9992
2 50489  87.9221 215.0293 0001708  71.5696 288.5622 13.18686441 62743
ONEWEB-0413             
1 50490U 21132X   23058.35491065  .00000050  00000+0  95263-4 0  9991
2 50490  87.9130 215.1147 0001362  81.5430 278.5856 13.18689271 62670
ONEWEB-0414             
1 50491U 21132Y   23058.34554880  .00000137  00000+0  28141-3 0  9992
2 50491  87.9612 215.1165 0000887  77.2234 282.9002 13.26360407 62691
ONEWEB-0417             
1 50492U 21132Z   23058.72794321  .00000133  00000+0  30443-3 0  9995
2 50492  87.9222 214.9793 0001939 101.7364 258.3986 13.18687587 64028
ONEWEB-0418             
1 50493U 21132AA  23058.39247879  .00000050  00000+0  75712-4 0  9997
2 50493  87.9606 215.0052 0001040  64.0064 296.1183 13.32611200 62736
ONEWEB-0419             
1 50494U 21132AB  23058.37597222  .00000162  00000+0  37842-3 0  9991
2 50494  87.9224 215.0131 0001809 112.7364 247.3959 13.18684958 62663
ONEWEB-0420             
1 50495U 21132AC  23058.34223158  .00000023  00000+0  26358-4 0  9990
2 50495  87.9221 215.0332 0001192 109.7833 250.3428 13.18683515 62658
ONEWEB-0421             
1 50496U 21132AD  23058.71523679 -.00017564  00000+0 -44614-1 0  9995
2 50496  87.9223 214.9667 0001220  68.2998 291.8264 13.18771736 64049
ONEWEB-0424             
1 50497U 21132AE  23058.37175165  .00000138  00000+0  31717-3 0  9990
2 50497  87.9219 215.0419 0001716 117.6493 242.4814 13.18688086 62722
ONEWEB-0426             
1 50498U 21132AF  23058.40969379  .00000081  00000+0  17365-3 0  9993
2 50498  87.9220 215.0166 0001950  85.4269 274.7086 13.18684332 62670
ONEWEB-0427             
1 50499U 21132AG  23058.36963579  .00000103  00000+0  22790-3 0  9998
2 50499  87.9221 215.0411 0001975 101.8063 258.3291 13.18688606 62693
ONEWEB-0429             
1 50500U 21132AH  23058.35701099  .00000052  00000+0  99936-4 0  9997
2 50500  87.9202 215.0422 0001565 103.3510 256.7796 13.18682266 62661
ONEWEB-0430             
1 50501U 21132AJ  23058.72584013  .00000144  00000+0  33279-3 0  9993
2 50501  87.9179 215.0046 0001408 111.3854 248.7429 13.18687109 64042
ONEWEB-0432             
1 50502U 21132AK  23058.37914071  .00000117  00000+0  26452-3 0  9991
2 50502  87.9219 215.0408 0001250  91.6375 268.4901 13.18685512 62669
ONEWEB-0440             
1 50503U 21132AL  23058.36544330  .00000092  00000+0  20142-3 0  9990
2 50503  87.9222 215.0497 0001493  70.8946 289.2347 13.18686233 62659
ONEWEB-0450             
1 50504U 21132AM  23058.35911752  .00000048  00000+0  89254-4 0  9997
2 50504  87.9224 215.0562 0001064 101.7799 258.3453 13.18687945 62688
ONEWEB-0410             
1 51622U 22012A   23058.49717028 -.00000199  00000+0 -54927-3 0  9999
2 51622  87.9112 245.3867 0003042  82.5422 277.6055 13.17292274 54923
ONEWEB-0411             
1 51623U 22012B   23058.48173777 -.00000461  00000+0 -13558-2 0  9992
2 51623  87.8723 275.8496 0002009  98.2945 261.8410 13.10374485 51388
ONEWEB-0415             
1 51624U 22012C   23058.32589192 -.00000555  00000+0 -16270-2 0  9996
2 51624  87.8760 275.8639 0001600 106.9815 253.1488 13.10374268 51364
ONEWEB-0416             
1 51625U 22012D   23058.10772638 -.00000066  00000+0 -22636-3 0  9993
2 51625  87.8765 275.8975 0001359  85.5833 274.5449 13.10377817 51374
ONEWEB-0422             
1 51626U 22012E   23058.42863933  .00000118  00000+0  27157-3 0  9997
2 51626  87.9073 245.4228 0000742  62.4124 297.7082 13.17165298 55025
ONEWEB-0423             
1 51627U 22012F   23058.49904116  .00000016  00000+0  73535-5 0  9994
2 51627  87.9054 245.3527 0001745  93.7111 266.4219 13.17262364 54928
ONEWEB-0425             
1 51628U 22012G   23058.11706632  .00000454  00000+0  12646-2 0  9996
2 51628  87.8761 275.8947 0001938  66.8512 293.2819 13.10377070 51371
ONEWEB-0428             
1 51629U 22012H   23058.55650616 -.00000811  00000+0 -23608-2 0  9994
2 51629  87.8759 275.8150 0000980  79.5904 280.5333 13.10373227 52671
ONEWEB-0431             
1 51630U 22012J   23058.12645036  .00000680  00000+0  19105-2 0  9998
2 51630  87.8745 275.9048 0001247 121.6980 238.4269 13.10373919 51391
ONEWEB-0434             
1 51631U 22012K   23058.12021434  .00000616  00000+0  17277-2 0  9996
2 51631  87.8767 275.9073 0001132  75.0575 285.0678 13.10375260 51370
ONEWEB-0435             
1 51632U 22012L   23058.05320403  .00000704  00000+0  19818-2 0  9998
2 51632  87.8758 275.9156 0000805  79.9110 280.2108 13.10371941 51352
ONEWEB-0436             
1 51633U 22012M   23058.49531907  .00000023  00000+0  25168-4 0  9991
2 51633  87.9111 245.3815 0001258  85.3620 274.7655 13.17328648 54902
ONEWEB-0438             
1 51634U 22012N   23058.11239115 -.00000281  00000+0 -84125-3 0  9992
2 51634  87.8765 275.9035 0001715  76.7580 283.3739 13.10373522 51390
ONEWEB-0439             
1 51635U 22012P   23058.11551370  .00000231  00000+0  62454-3 0  9997
2 51635  87.8743 275.9063 0001495  85.4038 274.7260 13.10376776 51373
ONEWEB-0442             
1 51636U 22012Q   23058.03222012  .00000035  00000+0  55902-4 0  9990
2 51636  87.9080 245.4747 0002661  96.2757 263.8677 13.17448787 54838
ONEWEB-0443             
1 51637U 22012R   23058.50275956  .00000049  00000+0  92870-4 0  9998
2 51637  87.9110 245.3686 0001085  63.8703 296.2539 13.17187018 54940
ONEWEB-0444             
1 51638U 22012S   23058.10615638 -.00000168  00000+0 -51803-3 0  9994
2 51638  87.8765 275.9099 0001215  76.3834 283.7428 13.10376876 51380
ONEWEB-0445             
1 51639U 22012T   23058.12799295  .00000776  00000+0  21877-2 0  9999
2 51639  87.8743 275.9219 0002112  93.8606 266.2763 13.10373782 51391
ONEWEB-0446             
1 51640U 22012U   23058.10459871 -.00000390  00000+0 -11542-2 0  9994
2 51640  87.8766 275.9077 0001542  97.2465 262.8838 13.10378771 51373
ONEWEB-0448             
1 51641U 22012V   23058.10929656  .00000044  00000+0  90504-4 0  9999
2 51641  87.8765 275.9090 0001322  75.5689 284.5585 13.10376161 51349
ONEWEB-0449             
1 51642U 22012W   23058.11398251  .00000339  00000+0  93447-3 0  9997
2 51642  87.8769 275.9057 0001785  79.1686 280.9642 13.10375655 51359
